{"fetched_at":"2026-07-20T07:40:28.790Z","source":"https://celestrak.org/NORAD/elements/gp.php?GROUP=spire&FORMAT=JSON","constellation":"spire","records":[{"OBJECT_NAME":"LEMUR-2-HUBBLE-4","OBJECT_ID":"2025-135AP","EPOCH":"2026-07-19T18:19:24.436128","CLASSIFICATION_TYPE":"U","MEAN_MOTION":14.93692072,"ECCENTRICITY":0.0003022,"INCLINATION":97.7722,"RA_OF_ASC_NODE":314.2938,"ARG_OF_PERICENTER":151.48,"MEAN_ANOMALY":208.6586,"EPHEMERIS_TYPE":0,"NORAD_CAT_ID":64565,"ELEMENT_SET_NO":999,"REV_AT_EPOCH":5873,"BSTAR":0.000038783,"MEAN_MOTION_DOT":0.00000354,"MEAN_MOTION_DDOT":0},{"OBJECT_NAME":"LEMUR-2-SEJONG-2","OBJECT_ID":"2025-135BL","EPOCH":"2026-07-19T19:03:00.455328","CLASSIFICATION_TYPE":"U","MEAN_MOTION":14.96933373,"ECCENTRICITY":0.0004249,"INCLINATION":97.7709,"RA_OF_ASC_NODE":315.6002,"ARG_OF_PERICENTER":196.9042,"MEAN_ANOMALY":163.2038,"EPHEMERIS_TYPE":0,"NORAD_CAT_ID":64586,"ELEMENT_SET_NO":999,"REV_AT_EPOCH":5882,"BSTAR":0.00021925,"MEAN_MOTION_DOT":0.0000246,"MEAN_MOTION_DDOT":0},{"OBJECT_NAME":"LEMUR-2-HUBBLE-5","OBJECT_ID":"2025-135BT","EPOCH":"2026-07-19T18:29:48.720192","CLASSIFICATION_TYPE":"U","MEAN_MOTION":14.94218974,"ECCENTRICITY":0.0004674,"INCLINATION":97.7742,"RA_OF_ASC_NODE":314.9749,"ARG_OF_PERICENTER":216.8397,"MEAN_ANOMALY":143.2502,"EPHEMERIS_TYPE":0,"NORAD_CAT_ID":64840,"ELEMENT_SET_NO":999,"REV_AT_EPOCH":5877,"BSTAR":0.000039504,"MEAN_MOTION_DOT":0.00000366,"MEAN_MOTION_DDOT":0},{"OBJECT_NAME":"LEMUR-2-KARENDARRELL","OBJECT_ID":"2025-135BU","EPOCH":"2026-07-19T19:08:44.254752","CLASSIFICATION_TYPE":"U","MEAN_MOTION":15.00536376,"ECCENTRICITY":0.0012824,"INCLINATION":97.7722,"RA_OF_ASC_NODE":316.9665,"ARG_OF_PERICENTER":90.864,"MEAN_ANOMALY":269.4053,"EPHEMERIS_TYPE":0,"NORAD_CAT_ID":64841,"ELEMENT_SET_NO":999,"REV_AT_EPOCH":5890,"BSTAR":0.00031115,"MEAN_MOTION_DOT":0.0000387,"MEAN_MOTION_DDOT":0},{"OBJECT_NAME":"LEMUR-2-LUCILLE-ROSE","OBJECT_ID":"2025-135BV","EPOCH":"2026-07-19T18:30:34.753248","CLASSIFICATION_TYPE":"U","MEAN_MOTION":15.00519254,"ECCENTRICITY":0.0015374,"INCLINATION":97.77,"RA_OF_ASC_NODE":316.9745,"ARG_OF_PERICENTER":175.4293,"MEAN_ANOMALY":184.7074,"EPHEMERIS_TYPE":0,"NORAD_CAT_ID":65403,"ELEMENT_SET_NO":999,"REV_AT_EPOCH":5352,"BSTAR":0.00026077,"MEAN_MOTION_DOT":0.00003234,"MEAN_MOTION_DDOT":0},{"OBJECT_NAME":"LEMUR-2-AFFIE-WAUWIE","OBJECT_ID":"2025-248C","EPOCH":"2026-07-19T16:24:05.543136","CLASSIFICATION_TYPE":"U","MEAN_MOTION":15.28373565,"ECCENTRICITY":0.0009377,"INCLINATION":45.391,"RA_OF_ASC_NODE":298.7582,"ARG_OF_PERICENTER":275.3833,"MEAN_ANOMALY":84.5986,"EPHEMERIS_TYPE":0,"NORAD_CAT_ID":66295,"ELEMENT_SET_NO":999,"REV_AT_EPOCH":3956,"BSTAR":0.00046425,"MEAN_MOTION_DOT":0.00012798,"MEAN_MOTION_DDOT":0},{"OBJECT_NAME":"OTTER SDM","OBJECT_ID":"2025-276N","EPOCH":"2026-07-19T15:20:53.530080","CLASSIFICATION_TYPE":"U","MEAN_MOTION":15.20085065,"ECCENTRICITY":0.0004523,"INCLINATION":97.4197,"RA_OF_ASC_NODE":273.5822,"ARG_OF_PERICENTER":233.4016,"MEAN_ANOMALY":126.6803,"EPHEMERIS_TYPE":0,"NORAD_CAT_ID":66678,"ELEMENT_SET_NO":999,"REV_AT_EPOCH":3534,"BSTAR":0.0001412,"MEAN_MOTION_DOT":0.0000298,"MEAN_MOTION_DDOT":0},{"OBJECT_NAME":"LEMUR-2-STAS-GORBUK","OBJECT_ID":"2025-276W","EPOCH":"2026-07-19T17:28:15.252384","CLASSIFICATION_TYPE":"U","MEAN_MOTION":15.19683379,"ECCENTRICITY":0.0003909,"INCLINATION":97.423,"RA_OF_ASC_NODE":273.7204,"ARG_OF_PERICENTER":226.6135,"MEAN_ANOMALY":133.4775,"EPHEMERIS_TYPE":0,"NORAD_CAT_ID":66686,"ELEMENT_SET_NO":999,"REV_AT_EPOCH":3535,"BSTAR":0.00012234,"MEAN_MOTION_DOT":0.00002543,"MEAN_MOTION_DDOT":0},{"OBJECT_NAME":"LEMUR-2-TEODOR","OBJECT_ID":"2025-276DG","EPOCH":"2026-07-19T17:48:05.567904","CLASSIFICATION_TYPE":"U","MEAN_MOTION":15.21363802,"ECCENTRICITY":0.0002148,"INCLINATION":97.4133,"RA_OF_ASC_NODE":274.0115,"ARG_OF_PERICENTER":84.1917,"MEAN_ANOMALY":275.9563,"EPHEMERIS_TYPE":0,"NORAD_CAT_ID":66768,"ELEMENT_SET_NO":999,"REV_AT_EPOCH":3539,"BSTAR":0.00012781,"MEAN_MOTION_DOT":0.00002795,"MEAN_MOTION_DDOT":0},{"OBJECT_NAME":"LEMUR-2-LAILA","OBJECT_ID":"2025-276DQ","EPOCH":"2026-07-19T18:38:19.928256","CLASSIFICATION_TYPE":"U","MEAN_MOTION":15.21590757,"ECCENTRICITY":0.0002847,"INCLINATION":97.4159,"RA_OF_ASC_NODE":274.1875,"ARG_OF_PERICENTER":87.8612,"MEAN_ANOMALY":272.295,"EPHEMERIS_TYPE":0,"NORAD_CAT_ID":66776,"ELEMENT_SET_NO":999,"REV_AT_EPOCH":3540,"BSTAR":0.00012648,"MEAN_MOTION_DOT":0.00002784,"MEAN_MOTION_DDOT":0},{"OBJECT_NAME":"LEMUR-2-CELIJO-SB-PK","OBJECT_ID":"2025-276DW","EPOCH":"2026-07-19T17:17:01.024800","CLASSIFICATION_TYPE":"U","MEAN_MOTION":15.00311679,"ECCENTRICITY":0.0006748,"INCLINATION":97.5183,"RA_OF_ASC_NODE":270.4234,"ARG_OF_PERICENTER":53.6288,"MEAN_ANOMALY":306.5558,"EPHEMERIS_TYPE":0,"NORAD_CAT_ID":66781,"ELEMENT_SET_NO":999,"REV_AT_EPOCH":2750,"BSTAR":0.00023258,"MEAN_MOTION_DOT":0.0000286,"MEAN_MOTION_DDOT":0},{"OBJECT_NAME":"LEMUR-2-FINNIAN","OBJECT_ID":"2025-276DX","EPOCH":"2026-07-19T18:08:46.804992","CLASSIFICATION_TYPE":"U","MEAN_MOTION":15.00644953,"ECCENTRICITY":0.0007081,"INCLINATION":97.5356,"RA_OF_ASC_NODE":270.7347,"ARG_OF_PERICENTER":342.529,"MEAN_ANOMALY":17.569,"EPHEMERIS_TYPE":0,"NORAD_CAT_ID":66782,"ELEMENT_SET_NO":999,"REV_AT_EPOCH":2488,"BSTAR":0.00010689,"MEAN_MOTION_DOT":0.00001294,"MEAN_MOTION_DDOT":0},{"OBJECT_NAME":"LEMUR-2-STARLIGHT","OBJECT_ID":"2025-276DY","EPOCH":"2026-07-19T17:46:22.078848","CLASSIFICATION_TYPE":"U","MEAN_MOTION":14.99388782,"ECCENTRICITY":0.0014626,"INCLINATION":97.5234,"RA_OF_ASC_NODE":270.2678,"ARG_OF_PERICENTER":33.6189,"MEAN_ANOMALY":326.596,"EPHEMERIS_TYPE":0,"NORAD_CAT_ID":66783,"ELEMENT_SET_NO":999,"REV_AT_EPOCH":3507,"BSTAR":0.00030086,"MEAN_MOTION_DOT":0.00003633,"MEAN_MOTION_DDOT":0},{"OBJECT_NAME":"LEMUR-2-TARTIFLETTE","OBJECT_ID":"2025-276DZ","EPOCH":"2026-07-19T17:44:08.367072","CLASSIFICATION_TYPE":"U","MEAN_MOTION":14.99370705,"ECCENTRICITY":0.0013855,"INCLINATION":97.5232,"RA_OF_ASC_NODE":270.2741,"ARG_OF_PERICENTER":42.2616,"MEAN_ANOMALY":317.9673,"EPHEMERIS_TYPE":0,"NORAD_CAT_ID":66784,"ELEMENT_SET_NO":999,"REV_AT_EPOCH":3507,"BSTAR":0.00027785,"MEAN_MOTION_DOT":0.00003348,"MEAN_MOTION_DDOT":0},{"OBJECT_NAME":"LEMUR-2-VUKASIN","OBJECT_ID":"2025-276EA","EPOCH":"2026-07-19T16:56:13.229088","CLASSIFICATION_TYPE":"U","MEAN_MOTION":15.00567775,"ECCENTRICITY":0.0002339,"INCLINATION":97.5206,"RA_OF_ASC_NODE":270.6077,"ARG_OF_PERICENTER":39.5355,"MEAN_ANOMALY":320.604,"EPHEMERIS_TYPE":0,"NORAD_CAT_ID":66785,"ELEMENT_SET_NO":999,"REV_AT_EPOCH":3502,"BSTAR":0.00017839,"MEAN_MOTION_DOT":0.00002194,"MEAN_MOTION_DDOT":0},{"OBJECT_NAME":"LEMUR-2-HOTSPUR-TOM","OBJECT_ID":"2025-276EB","EPOCH":"2026-07-19T17:36:31.040640","CLASSIFICATION_TYPE":"U","MEAN_MOTION":14.99267468,"ECCENTRICITY":0.0013632,"INCLINATION":97.5213,"RA_OF_ASC_NODE":270.2414,"ARG_OF_PERICENTER":34.0717,"MEAN_ANOMALY":326.1379,"EPHEMERIS_TYPE":0,"NORAD_CAT_ID":66786,"ELEMENT_SET_NO":999,"REV_AT_EPOCH":3500,"BSTAR":0.00023595,"MEAN_MOTION_DOT":0.00002827,"MEAN_MOTION_DDOT":0}]}
